#aV2015  7 15  0  0  0.00000000     288 DD+AD WGS84 FIT  NGA
## 1853 259200.00000000   300.00000000 57218 0.0000000000000
+   31     1  2  3  4  5  6  7  9 10 11 12 13 14 15 16 17 18
+         19 20 21 22 23 24 25 26 27 28 29 30 31 32  0  0  0
+          0  0  0  0  0  0  0  0  0  0  0  0  0  0  0  0  0
+          0  0  0  0  0  0  0  0  0  0  0  0  0  0  0  0  0
+          0  0  0  0  0  0  0  0  0  0  0  0  0  0  0  0  0
++         2  2  2  2  2  2  2  2  2  2  2  2  2  2  2  2  2
++         2  2  2  2  2  2  2  2  2  2  2  2  2  2  0  0  0
++         0  0  0  0  0  0  0  0  0  0  0  0  0  0  0  0  0
++         0  0  0  0  0  0  0  0  0  0  0  0  0  0  0  0  0
++         0  0  0  0  0  0  0  0  0  0  0  0  0  0  0  0  0
%c cc cc ccc ccc cccc cccc cccc cccc ccccc ccccc ccccc ccccc
%c cc cc ccc ccc cccc cccc cccc cccc ccccc ccccc ccccc ccccc
%f  0.0000000  0.000000000  0.00000000000  0.000000000000000
%f  0.0000000  0.000000000  0.00000000000  0.000000000000000
%i    0    0    0    0      0      0      0      0         0
%i    0    0    0    0      0      0      0      0         0
/*      NGA, ST. LOUIS,MO.                                  
/*   EPHEMERIS COMPUTED FROM  1 DAYS OF DATA                
/*   EPOCHA SMOOTHER                                       
/* CCCCCCCCCCCCCCCCCCCCCCCCCCCCCCCCCCCCCCCCCCCCCCCCCCCCCCCCC
*  2015  7 15  8 40  0.00000000
P  1 -16740.047740  -2626.280162  20443.066396     -2.850364                    
V  1  -9794.318460 -24134.781799 -10895.095674      0.005806                    
P  2  14655.664128  21821.776496  -4823.451759    578.345058                    
V  2    174.150224   7193.419946  30246.207328      0.023285                    
P  3 -19625.842022   8135.313902  15974.652169      7.126743                    
V  3  10224.103949 -17586.589654  21505.510906      0.045247                    
P  4 -17974.713678 -12255.350403  15081.350585     -1.528019                    
V  4  -6281.224823 -18813.063967 -22019.606416     -0.029190                    
P  5  10291.098749  12089.041380 -21322.005155   -217.803033                    
V  5 -16050.976639  21765.141184   4791.037851      0.043353                    
P  6   5975.955234  24913.586163   7019.299726     16.728939                    
V  6  -6066.516469  -7028.205502  30099.992995      0.082184                    
P  7 -10121.844144  12694.002386 -20831.458247    474.556490                    
V  7 -11311.036965 -24274.041712  -9621.379881      0.021307                    
P  9 -20357.001061   8545.958735 -14787.009519     -7.013170                    
V  9 -18483.892815  -3891.225890  23184.885952     -0.024754                    
P 10  -5772.278018  22913.565553 -12086.594233   -182.627400                    
V 10 -11273.233623  10281.559338  26135.769596     -0.013696                    
P 11 -21347.829269  -5281.759506  14434.789337   -591.493524                    
V 11 -11023.018359 -16387.520710 -21384.832256     -0.023899                    
P 12  18800.253027  -4782.214249  17934.717416    310.087865                    
V 12 -13277.489112  18826.328873  19034.148955      0.033098                    
P 13  19800.096170  12758.166547 -12290.574471   -132.296849                    
V 13 -15501.579236  -1208.916460 -26637.865391     -0.033418                    
P 14   3215.107296 -14874.933850  22013.093818     48.835067                    
V 14  26904.783868   4882.047714   -792.663113     -0.026998                    
P 15  26229.791681   3890.858559  -3501.648133   -260.560747                    
V 15  -4474.144235   3150.210309 -30498.443831     -0.021075                    
P 16  -8618.717664 -12231.556466 -21985.266722   -108.366168                    
V 16  17917.523417 -21112.024245   5096.394873      0.040754                    
P 17  -1651.724759  14999.109267  22156.758791   -180.176363                    
V 17 -27090.966695  -3960.816380    469.227031     -0.015899                    
P 18  15090.161012 -21645.240025   -310.655897    417.376630                    
V 18   2930.256122   3204.060570 -31117.794550      0.030647                    
P 19 -25143.215905  -8171.376390  -4677.110362   -515.937080                    
V 19   5887.621525   -937.632997 -30934.173036     -0.009308                    
P 20  18992.399387  -5066.891400 -18046.423432    338.535680                    
V 20 -10122.076515  20433.215044 -16434.709674      0.032509                    
P 21   8143.271317 -15656.864984 -19048.805869   -463.867627                    
V 21  12769.230763  22611.612758 -13007.668391     -0.031623                    
P 22   6276.005776 -23496.643133  10704.816117    371.214434                    
V 22  10500.382797  -9034.390953 -26757.069908      0.038519                    
P 23 -26404.746218    465.555289  -4394.250085   -121.094033                    
V 23  -5401.114586  -3371.170118  30531.595274     -0.023360                    
P 24  17598.999504   5342.174797  19177.698953     -1.357363                    
V 24   9226.550021  22633.261507 -14598.499016     -0.006668                    
P 25  18845.312418 -16508.347760   8464.201705    -13.238079                    
V 25  -4534.391716  10181.595705  29753.481611     -0.044797                    
P 26   -482.054714 -20174.034311 -17275.020317     -9.050865                    
V 26  14118.440128 -16860.659466  19309.223449     -0.054088                    
P 27 -18510.055186 -12046.325425 -14866.541780      4.436908                    
V 27  18860.091315    -24.068519 -23381.971462      0.028012                    
P 28 -11328.586981  22578.120127   8678.284752    453.706660                    
V 28  -7805.261114   6714.063623 -29876.268767      0.026024                    
P 29  22085.128055  -5868.472081 -13482.865017    622.492199                    
V 29  16646.324292   4515.683377  25314.604495      0.021198                    
P 30  -3006.085229  21894.641410 -14685.580471    -13.512651                    
V 30  -8542.722453 -16757.372888 -23322.469411      0.076826                    
P 31  -6754.597341 -25043.209637   4932.876764    309.753300                    
V 31   4730.234035   4697.336637  31463.429121     -0.012380                    
P 32 -14514.148332  -6484.184841  21184.586230    -99.468231                    
V 32  16899.030049 -21193.683548   5620.275674      0.099992                    
EOF
